[{"OBJECT_NAME":"KUIPER-00138","OBJECT_ID":"2025-228T","EPOCH":"2026-03-09T22:48:42.986592","MEAN_MOTION":14.79931547,"ECCENTRICITY":7.135e-5,"INCLINATION":51.9006,"RA_OF_ASC_NODE":341.9402,"ARG_OF_PERICENTER":86.7972,"MEAN_ANOMALY":273.3071,"EPHEMERIS_TYPE":0,"CLASSIFICATION_TYPE":"U","NORAD_CAT_ID":65964,"ELEMENT_SET_NO":999,"REV_AT_EPOCH":2351,"BSTAR":2.8460536e-5,"MEAN_MOTION_DOT":-4.0e-8,"MEAN_MOTION_DDOT":0},{"OBJECT_NAME":"SS 2","OBJECT_ID":"1977-112E","EPOCH":"2026-03-09T21:50:48.413184","MEAN_MOTION":13.91112922,"ECCENTRICITY":0.05221989,"INCLINATION":63.3355,"RA_OF_ASC_NODE":261.535,"ARG_OF_PERICENTER":160.9398,"MEAN_ANOMALY":201.2029,"EPHEMERIS_TYPE":0,"CLASSIFICATION_TYPE":"U","NORAD_CAT_ID":10544,"ELEMENT_SET_NO":999,"REV_AT_EPOCH":33858,"BSTAR":0.00039726462,"MEAN_MOTION_DOT":1.41e-5,"MEAN_MOTION_DDOT":0}]
